POLYITAN-1              
1 40042U 14033AJ  26189.64872779  .00014055  00000+0  42853-3 0  9996
2 40042  98.0942 217.9511 0008367  82.8597 277.3594 15.34052541656883
TIGRISAT                
1 40043U 14033AK  26189.87703332  .00001179  00000+0  14087-3 0  9991
2 40043  97.7856 339.3953 0049192   5.1691 355.0022 14.85237320648849
AEROCUBE 6A             
1 40045U 14033AM  26189.72966989  .00003299  00000+0  27852-3 0  9995
2 40045  97.7236 356.4531 0037038 303.1864  56.5808 14.98301671649845
AEROCUBE 6B             
1 40046U 14033AN  26188.71023843  .00002971  00000+0  24186-3 0  9990
2 40046  97.7215 355.2788 0037847 296.6954  63.0396 14.99755397649831
CANX-4                  
1 40055U 14034C   26189.90288253  .00000630  00000+0  88055-4 0  9997
2 40055  98.3094  66.0105 0011647 305.2777  54.7345 14.81303993647744
CANX-5                  
1 40056U 14034D   26189.90106225  .00000631  00000+0  88166-4 0  9990
2 40056  98.3096  66.0535 0011641 305.5159  54.4966 14.81321342638558
UKUBE-1                 
1 40074U 14037F   26189.98238363  .00004805  00000+0  26984-3 0  9996
2 40074  98.4245 195.5495 0003273  99.1613 260.9986 15.13887025651856
BRITE-PL2 (HEWELIUSZ)   
1 40119U 14049B   26189.86329315  .00001661  00000+0  15841-3 0  9991
2 40119  97.9115 302.0330 0014793  42.6299 317.6066 14.94673311644682
AEROCUBE 5C             
1 40965U 15058B   26189.62710730  .00001996  00000+0  18327-3 0  9993
2 40965  64.7654 195.8861 0131895  54.9385 306.4014 14.91549938368858
AEROCUBE 7              
1 40966U 15058C   26189.69562997  .00003209  00000+0  26071-3 0  9995
2 40966  64.7606 177.4388 0121597  53.2521 307.9684 14.95872823369179
FOX-1A (AO-85)          
1 40967U 15058D   26189.34630242  .00001594  00000+0  15149-3 0  9996
2 40967  64.7733 213.2226 0131833  48.4039 312.8281 14.91062267116723
SINOD-D 1               
1 40968U 15058E   26189.47047871  .00003105  00000+0  25218-3 0  9999
2 40968  64.7734 192.2541 0120508  44.7381 316.3376 14.96046656119846
SNAP-3 ALICE            
1 40970U 15058G   26189.86614438  .00120206  00000+0  11419-2 0  9993
2 40970  64.7497  28.6821 0023584 353.0968   6.9852 15.65911681120277
LMRST-SAT               
1 40971U 15058H   26189.77665066  .00001703  00000+0  16171-3 0  9998
2 40971  64.7740 208.2640 0133424  50.2506 311.0270 14.90680325116772
SNAP-3 EDDIE            
1 40972U 15058J   26189.90288518  .00115112  00000+0  10375-2 0  9996
2 40972  64.7405  19.1153 0024533 355.9394   4.1552 15.67200263122425
PROPCUBE 3              
1 40973U 15058K   26189.02291486  .00002298  00000+0  19686-3 0  9993
2 40973  64.7669 187.4306 0125233  51.7463 309.4841 14.94377515117918
BISONSAT                
1 40974U 15058L   26189.92742421  .00010460  00000+0  49561-3 0  9998
2 40974  64.7579 103.3230 0081431  38.5439 322.1461 15.16811443118918
SNAP-3 JIMI             
1 40975U 15058M   26189.95562128  .00004667  00000+0  32125-3 0  9996
2 40975  64.7634 150.8853 0107301  46.7367 314.2642 15.02549103117496
PROPCUBE 1 (FLORA)      
1 40976U 15058N   26189.54995262  .00001322  00000+0  13408-3 0  9999
2 40976  64.7731 229.0228 0132012  52.6256 308.6791 14.89308548119449
SINOD-D 3               
1 40977U 15058P   26189.32564808  .00002066  00000+0  18159-3 0  9998
2 40977  64.7708 209.8037 0120551  49.7948 311.3641 14.94138888117917
RAVAN                   
1 41849U 16067B   26189.65507706  .00044355  00000+0  61513-3 0  9997
2 41849  97.9854  81.7396 0001596 264.6059  95.5012 15.56937795531038
CELTEE 1                
1 41850U 16067C   26189.60514709  .00003332  00000+0  15880-3 0  9991
2 41850  98.0651  57.6329 0002097 118.4249 241.7196 15.19898372529131
OPTICUBE 04             
1 41851U 16067D   26189.35486952  .00001482  00000+0  96031-4 0  9994
2 41851  98.0684  42.7419 0016617  49.7646 310.5032 15.09751902528367
AEROCUBE 8D             
1 41852U 16067E   26189.61813817  .00004874  00000+0  20032-3 0  9993
2 41852  98.0658  61.4206 0004878  72.9126 287.2644 15.24707647529339
AEROCUBE 8C             
1 41853U 16067F   26188.06477431  .00005788  00000+0  23555-3 0  9998
2 41853  98.0530  56.9510 0005109  10.9574 349.1772 15.24945674529090
CORVUS BC2              
1 42846U 17042X   26189.91647159  .00002218  00000+0  15417-3 0  9999
2 42846  97.4091 350.4254 0013919  43.2717 316.9601 15.06435714490337
CORVUS BC1              
1 42847U 17042Y   26189.90867860  .00001898  00000+0  13199-3 0  9990
2 42847  97.4123 351.2462 0012254  22.1714 338.0041 15.06600810490365
MAKERSAT 0              
1 43016U 17073D   26189.72816002  .00013683  00000+0  36375-3 0  9991
2 43016  97.4597  72.4218 0105066 195.3224 164.4830 15.32839065469765
SIRION PATHFINDER-2     
1 43759U 18099B   26189.65263305  .00002925  00000+0  16123-3 0  9994
2 43759  97.4246 238.2007 0007811 215.4457 144.6257 15.14744359415876
CORVUS BC4              
1 43767U 18099K   26189.68843160  .00002438  00000+0  14299-3 0  9990
2 43767  97.4057 232.0397 0006519 289.4276  70.6250 15.12668563415650
